[{"OBJECT_NAME":"HAWK-7B","OBJECT_ID":"2023-054R","EPOCH":"2026-03-09T16:32:12.682752","MEAN_MOTION":15.26206341,"ECCENTRICITY":0.00036614,"INCLINATION":97.2859,"RA_OF_ASC_NODE":316.7839,"ARG_OF_PERICENTER":61.5878,"MEAN_ANOMALY":298.573,"EPHEMERIS_TYPE":0,"CLASSIFICATION_TYPE":"U","NORAD_CAT_ID":56193,"ELEMENT_SET_NO":999,"REV_AT_EPOCH":16184,"BSTAR":0.00031010844,"MEAN_MOTION_DOT":7.955e-5,"MEAN_MOTION_DDOT":0},{"OBJECT_NAME":"STARLINK-31193","OBJECT_ID":"2024-012L","EPOCH":"2026-03-09T08:11:48.671520","MEAN_MOTION":15.27580624,"ECCENTRICITY":0.00015256,"INCLINATION":43.0014,"RA_OF_ASC_NODE":167.1338,"ARG_OF_PERICENTER":274.8459,"MEAN_ANOMALY":85.2219,"EPHEMERIS_TYPE":0,"CLASSIFICATION_TYPE":"U","NORAD_CAT_ID":58797,"ELEMENT_SET_NO":999,"REV_AT_EPOCH":12118,"BSTAR":-9.4977982e-5,"MEAN_MOTION_DOT":-2.875e-5,"MEAN_MOTION_DDOT":0}]
